DMSP 5D-3 F16 (USA 172) 
1 28054U 03048A   26118.52598138  .00000078  00000+0  64581-4 0  9995
2 28054  98.9928 142.0177 0005953 291.1317 224.1917 14.14477571162460
METEOSAT-9 (MSG-2)      
1 28912U 05049B   26117.92908240  .00000120  00000+0  00000+0 0  9992
2 28912   9.2511  54.6535 0000570 348.6764 192.7183  1.00275686  6495
DMSP 5D-3 F17 (USA 191) 
1 29522U 06050A   26118.45943725  .00000115  00000+0  81860-4 0  9991
2 29522  98.7395 126.0451 0009774 191.4113 168.6840 14.14983376  5395
FENGYUN 3A              
1 32958U 08026A   26118.42669442  .00000078  00000+0  57642-4 0  9990
2 32958  98.6859  60.1988 0007577 272.4116  87.6192 14.19560206928348
GOES 14                 
1 35491U 09033A   26118.52976553 -.00000061  00000+0  00000+0 0  9993
2 35491   1.5638  83.6106 0001830 317.8561 175.3710  1.00117129  6095
DMSP 5D-3 F18 (USA 210) 
1 35951U 09057A   26118.49799447  .00000285  00000+0  17080-3 0  9998
2 35951  98.9018  99.3833 0011826  37.0673 323.1315 14.14867460852564
EWS-G2 (GOES 15)        
1 36411U 10008A   26118.50295799  .00000018  00000+0  00000+0 0  9995
2 36411   1.1467  83.7474 0004160  23.6600 353.3946  1.00272868 59143
COMS 1                  
1 36744U 10032A   26118.37320242 -.00000347  00000+0  00000+0 0  9994
2 36744   4.6789  76.0213 0001126 320.2854  82.5363  1.00271891 50598
FENGYUN 3B              
1 37214U 10059A   26118.52644983  .00000136  00000+0  93712-4 0  9996
2 37214  98.9673 164.3199 0021587 330.3193 135.6238 14.14830179800407
SUOMI NPP               
1 37849U 11061A   26118.50670017  .00000083  00000+0  60235-4 0  9994
2 37849  98.7929  59.7301 0002787  99.2640 260.8851 14.19506403751394
METEOSAT-10 (MSG-3)     
1 38552U 12035B   26118.06266106 -.00000011  00000+0  00000+0 0  9990
2 38552   4.5556  61.2327 0002119 315.0050 222.5230  1.00268429 50359
METOP-B                 
1 38771U 12049A   26118.49318502  .00000118  00000+0  73924-4 0  9990
2 38771  98.6546 170.9739 0003448 120.1492 240.0027 14.21433813706200
INSAT-3D                
1 39216U 13038B   26118.44476875 -.00000343  00000+0  00000+0 0  9998
2 39216   1.7993  83.1379 0001511 287.5071 135.4144  1.00271363 46589
FENGYUN 3C              
1 39260U 13052A   26118.50140628  .00000076  00000+0  59660-4 0  9997
2 39260  98.4953  94.6675 0014933 161.9793 198.1915 14.15743079651538
METEOR-M 2              
1 40069U 14037A   26118.52034758 -.00000090  00000+0 -21862-4 0  9999
2 40069  98.5083  96.0270 0005663 169.0020 191.1283 14.21446514612260
HIMAWARI-8              
1 40267U 14060A   26118.44702208  .00000000  00000+0  00000+0 0  9993
2 40267   0.0158 256.9850 0000971 149.4807 111.5460  1.00267612 42267
FENGYUN 2G              
1 40367U 14090A   26118.49340624 -.00000305  00000+0  00000+0 0  9991
2 40367   5.5159  73.4022 0002782 143.8863 276.6027  1.00272043 41506
METEOSAT-11 (MSG-4)     
1 40732U 15034A   26118.27841441  .00000059  00000+0  00000+0 0  9990
2 40732   3.0770  71.3671 0001579 345.0295 269.6231  1.00264603  6715
ELEKTRO-L 2             
1 41105U 15074A   26118.05980105 -.00000120  00000+0  00000+0 0  9996
2 41105   6.5708  71.1274 0002271 259.2657 252.6594  1.00270814 38006
INSAT-3DR               
1 41752U 16054A   26118.50512465 -.00000082  00000+0  00000+0 0  9990
2 41752   0.1193  86.3943 0011434 195.0677 190.8508  1.00271858 35322
HIMAWARI-9              
1 41836U 16064A   26118.44702208 -.00000280  00000+0  00000+0 0  9993
2 41836   0.0434 109.9279 0000944 301.7534 106.4411  1.00271823 34718
GOES 16                 
1 41866U 16071A   26118.43989999 -.00000096  00000+0  00000+0 0  9992
2 41866   0.2169  85.3427 0001433 254.8469 289.8712  1.00271402 34600
FENGYUN 4A              
1 41882U 16077A   26118.55532468 -.00000360  00000+0  00000+0 0  9998
2 41882   2.1991  80.7804 0008048 141.1617 318.1746  1.00265952 34439
CYGFM05                 
1 41884U 16078A   26118.50638479  .00022342  00000+0  32781-3 0  9993
2 41884  34.9568 229.0167 0006982  41.5107 318.6146 15.54517709521014
CYGFM04                 
1 41885U 16078B   26118.42977546  .00028020  00000+0  35043-3 0  9999
2 41885  34.9325 199.5583 0006023  88.9012 271.2402 15.58770159521221
CYGFM02                 
1 41886U 16078C   26118.51452181  .00031886  00000+0  36372-3 0  9993
2 41886  34.9409 194.8035 0007110  90.6267 269.5273 15.61143936521390
CYGFM01                 
1 41887U 16078D   26118.51562350  .00022981  00000+0  32969-3 0  9998
2 41887  34.9400 230.3978 0006724  34.6513 325.4647 15.55125796520962
CYGFM08                 
1 41888U 16078E   26118.55489301  .00026363  00000+0  34615-3 0  9995
2 41888  34.9433 210.9388 0007980  68.3339 291.8235 15.57474164521220
CYGFM07                 
1 41890U 16078G   26118.51701620  .00025883  00000+0  33904-3 0  9991
2 41890  34.9448 199.5726 0006473  88.3415 271.8050 15.57553513521241
CYGFM03                 
1 41891U 16078H   26118.48794977  .00026425  00000+0  34610-3 0  9993
2 41891  34.9402 201.7201 0005678  74.5066 285.6285 15.57558607521210
FENGYUN 3D              
1 43010U 17072A   26118.53291052  .00000233  00000+0  13191-3 0  9995
2 43010  99.0093  92.0673 0001457 148.0935 212.0329 14.19729461437944
NOAA 20 (JPSS-1)        
1 43013U 17073A   26118.52022260  .00000059  00000+0  49077-4 0  9990
2 43013  98.7748  58.4304 0002080  69.6503 290.4896 14.19548025437426
GOES 17                 
1 43226U 18022A   26118.44651521 -.00000187  00000+0  00000+0 0  9991
2 43226   0.8120  86.3818 0000663 286.2833 275.0117  1.00271885 29928
FENGYUN 2H              
1 43491U 18050A   26118.50616466 -.00000133  00000+0  00000+0 0  9993
2 43491   2.9057  79.6318 0001575 158.2132 240.1287  1.00274451 28941
METOP-C                 
1 43689U 18087A   26118.44469545  .00000111  00000+0  70724-4 0  9999
2 43689  98.6677 178.9492 0000720  39.4508 320.6722 14.21512367387768
GEO-KOMPSAT-2A          
1 43823U 18100A   26118.23062175 -.00000350  00000+0  00000+0 0  9991
2 43823   0.0523  73.2393 0002105 354.6312 359.6206  1.00270498 27125
METEOR-M2 2             
1 44387U 19038A   26118.51013753  .00000276  00000+0  13945-3 0  9999
2 44387  98.9128 105.0686 0001798 123.8956 236.2394 14.24352152354224
ARKTIKA-M 1             
1 47719U 21016A   26118.14887370 -.00000091  00000+0  00000+0 0  9993
2 47719  63.2267  64.8413 7268792 269.7018  14.9377  2.00608233 37786
FENGYUN 3E              
1 49008U 21062A   26118.52242275 -.00000055  00000+0 -53180-5 0  9992
2 49008  98.7506 122.4836 0000864 185.5957 174.5210 14.19899549249534
GOES 18                 
1 51850U 22021A   26118.46341330  .00000000  00000+0  00000+0 0  9996
2 51850   0.0123  73.3619 0000724  19.6968 153.1993  1.00270586  6093
NOAA 21 (JPSS-2)        
1 54234U 22150A   26118.48396786  .00000057  00000+0  47680-4 0  9997
2 54234  98.7037  58.1146 0001711  17.6833 342.4403 14.19556103179492
METEOSAT-12 (MTG-I1)    
1 54743U 22170C   26118.34780898 -.00000014  00000+0  00000+0 0  9994
2 54743   0.7259  22.6526 0001102 339.5075 339.0303  1.00270048 12474
TIANMU-1 03             
1 55973U 23039A   26118.48825275  .00015411  00000+0  31921-3 0  9995
2 55973  97.5214 290.5725 0001641 269.5809  90.5252 15.45853480173153
TIANMU-1 04             
1 55974U 23039B   26118.49608479  .00017531  00000+0  35600-3 0  9995
2 55974  97.5150 289.7332 0002368 265.3763  94.7215 15.46403376173169
TIANMU-1 05             
1 55975U 23039C   26118.53153594  .00015276  00000+0  31708-3 0  9993
2 55975  97.5195 290.2503 0001563 312.3598  47.7518 15.45792628173143
TIANMU-1 06             
1 55976U 23039D   26118.49673851  .00015786  00000+0  32167-3 0  9998
2 55976  97.5204 290.8014 0001794 299.8140  60.2930 15.46327384173160
FENGYUN 3G              
1 56232U 23055A   26118.50693318  .00027820  00000+0  45091-3 0  9996
2 56232  49.9928 242.2491 0006003 331.4805  28.5832 15.52493708172280
METEOR-M2 3             
1 57166U 23091A   26118.56348750  .00000002  00000+0  19702-4 0  9990
2 57166  98.6121 174.5473 0003151 329.5003  30.5992 14.24042423147452
TIANMU-1 07             
1 57399U 23101A   26118.51018895  .00006523  00000+0  23220-3 0  9992
2 57399  97.2638 170.3292 0001229   5.2683 354.8570 15.29282084154050
TIANMU-1 08             
1 57400U 23101B   26118.60851428  .00005920  00000+0  21081-3 0  9995
2 57400  97.2627 170.2014 0002143 304.8011  55.3028 15.29312233154063
TIANMU-1 09             
1 57401U 23101C   26118.52678772  .00006613  00000+0  23510-3 0  9995
2 57401  97.2585 169.5645 0001702 356.4825   3.6404 15.29321039154051
TIANMU-1 10             
1 57402U 23101D   26118.55944074  .00007028  00000+0  24941-3 0  9990
2 57402  97.2664 170.5952 0002665 328.6160  31.4921 15.29356154154054
FENGYUN 3F              
1 57490U 23111A   26118.50742603  .00000071  00000+0  53927-4 0  9995
2 57490  98.6853 189.4366 0000933 114.2988 245.8286 14.19930103141812
ARKTIKA-M 2             
1 58584U 23198A   26110.92958556  .00000217  00000+0  00000+0 0  9990
2 58584  63.2192 160.7194 6953303 267.0904  18.4710  2.00586979 17173
TIANMU-1 11             
1 58645U 23205A   26118.50382838  .00005879  00000+0  22792-3 0  9998
2 58645  97.3483 140.8528 0009334 168.3605 191.7851 15.26473422129943
TIANMU-1 12             
1 58646U 23205B   26118.53831690  .00006445  00000+0  25007-3 0  9999
2 58646  97.3472 140.6534 0008206 150.5830 209.5872 15.26420281129932
TIANMU-1 13             
1 58647U 23205C   26118.56752984  .00005931  00000+0  22995-3 0  9993
2 58647  97.3500 140.9429 0008945 135.1209 225.0754 15.26473779129932
TIANMU-1 14             
1 58648U 23205D   26118.48740889  .00006544  00000+0  25356-3 0  9991
2 58648  97.3435 140.0881 0009567 139.7016 220.4933 15.26445290129924
TIANMU-1 19             
1 58660U 23208A   26118.55460934  .00008985  00000+0  30432-3 0  9998
2 58660  97.4443 234.6480 0006368 125.8900 234.2933 15.30791015129733
TIANMU-1 20             
1 58661U 23208B   26118.56565928  .00008995  00000+0  29352-3 0  9999
2 58661  97.4385 235.2433 0008358 134.6786 225.5138 15.31979944129825
TIANMU-1 21             
1 58662U 23208C   26118.56124963  .00011144  00000+0  33908-3 0  9992
2 58662  97.4442 237.7108 0008373 129.4880 230.7104 15.34155910129957
TIANMU-1 22             
1 58663U 23208D   26118.52060218  .00008512  00000+0  29263-3 0  9995
2 58663  97.4438 234.5897 0004784 142.2658 217.8919 15.30332237129732
TIANMU-1 15             
1 58700U 24004A   26118.54991003  .00006255  00000+0  24240-3 0  9991
2 58700  97.4675 304.7485 0007736 153.3287 206.8351 15.26486209128204
TIANMU-1 16             
1 58701U 24004B   26118.53219598  .00006464  00000+0  25017-3 0  9998
2 58701  97.4620 304.0195 0006144 153.2388 206.9168 15.26524146128209
TIANMU-1 17             
1 58702U 24004C   26118.51644973  .00006365  00000+0  24754-3 0  9993
2 58702  97.4648 304.4726 0005936 158.0843 202.0650 15.26371732128193
TIANMU-1 18             
1 58703U 24004D   26118.50063150  .00006394  00000+0  24782-3 0  9998
2 58703  97.4666 304.6826 0004790 149.6076 210.5441 15.26485405128193
INSAT-3DS               
1 58990U 24033A   26117.86494880 -.00000163  00000+0  00000+0 0  9996
2 58990   0.0947  86.8667 0001974 301.8659 220.5579  1.00270644 46562
METEOR-M2 4             
1 59051U 24039A   26118.52188169  .00000005  00000+0  21827-4 0  9994
2 59051  98.6978  78.4546 0006348 321.6323  38.4402 14.22424179112207
GOES 19                 
1 60133U 24119A   26118.47553574 -.00000254  00000+0  00000+0 0  9998
2 60133   0.0053 216.5887 0000606 231.7194 224.1389  1.00272581  6460
FENGYUN 3H              
1 65815U 25219A   26118.43273691  .00000062  00000+0  49574-4 0  9997
2 65815  98.6742  60.1771 0000889 107.2788 252.8486 14.19944387 30326
